{
"type": "FeatureCollection",
"name": "wards_with_risk",
"crs": { "type": "name", "properties": { "name": "urn:ogc:def:crs:OGC:1.3:CRS84" } },
"features": [
{ "type": "Feature", "properties": { "ward_id": 1, "ward_name": "SW_Ward_001", "district": "South West Delhi", "avg_risk": 0.39605508274103501, "max_risk": 0.59933828547255252, "n_cells": 638, "avg_elevation": 239.93969736335666, "avg_rainfall": 0.0, "avg_drain_dist": 8377.7279375882863, "high_risk_cells": 0.0 }, "geometry": { "type": "Polygon", "coordinates": [ [ [ 76.87875, 28.478571428571428 ], [ 76.87875, 28.45 ], [ 76.84, 28.45 ], [ 76.84, 28.478571428571428 ], [ 76.87875, 28.478571428571428 ] ] ] } },
{ "type": "Feature", "properties": { "ward_id": 2, "ward_name": "SW_Ward_002", "district": "South West Delhi", "avg_risk": 0.31711299341218185, "max_risk": 0.50402927553814503, "n_cells": 660, "avg_elevation": 240.42058048498453, "avg_rainfall": 0.0, "avg_drain_dist": 5753.0627666875926, "high_risk_cells": 0.0 }, "geometry": { "type": "Polygon", "coordinates": [ [ [ 76.87875, 28.478571428571428 ], [ 76.9175, 28.478571428571428 ], [ 76.9175, 28.45 ], [ 76.87875, 28.45 ], [ 76.87875, 28.478571428571428 ] ] ] } },
{ "type": "Feature", "properties": { "ward_id": 3, "ward_name": "SW_Ward_003", "district": "South West Delhi", "avg_risk": 0.23574749663827657, "max_risk": 0.43349185336955387, "n_cells": 660, "avg_elevation": 240.02600032042946, "avg_rainfall": 0.0, "avg_drain_dist": 2933.6923661094052, "high_risk_cells": 0.0 }, "geometry": { "type": "Polygon", "coordinates": [ [ [ 76.9175, 28.478571428571428 ], [ 76.95625, 28.478571428571428 ], [ 76.95625, 28.45 ], [ 76.9175, 28.45 ], [ 76.9175, 28.478571428571428 ] ] ] } },
{ "type": "Feature", "properties": { "ward_id": 4, "ward_name": "SW_Ward_004", "district": "South West Delhi", "avg_risk": 0.18370529113950845, "max_risk": 0.36051052132346373, "n_cells": 660, "avg_elevation": 239.2716899216467, "avg_rainfall": 0.0, "avg_drain_dist": 1065.7691231006097, "high_risk_cells": 0.0 }, "geometry": { "type": "Polygon", "coordinates": [ [ [ 76.95625, 28.478571428571428 ], [ 76.995, 28.478571428571428 ], [ 76.995, 28.45 ], [ 76.95625, 28.45 ], [ 76.95625, 28.478571428571428 ] ] ] } },
{ "type": "Feature", "properties": { "ward_id": 5, "ward_name": "SW_Ward_005", "district": "South West Delhi", "avg_risk": 0.21363175391313804, "max_risk": 0.40526515014058173, "n_cells": 660, "avg_elevation": 239.6028799702884, "avg_rainfall": 0.0, "avg_drain_dist": 2127.2899150739981, "high_risk_cells": 0.0 }, "geometry": { "type": "Polygon", "coordinates": [ [ [ 76.995, 28.478571428571428 ], [ 77.03375, 28.478571428571428 ], [ 77.03375, 28.45 ], [ 76.995, 28.45 ], [ 76.995, 28.478571428571428 ] ] ] } },
{ "type": "Feature", "properties": { "ward_id": 6, "ward_name": "SW_Ward_006", "district": "South West Delhi", "avg_risk": 0.23750497617638269, "max_risk": 0.43229881565109773, "n_cells": 660, "avg_elevation": 240.41889210738577, "avg_rainfall": 0.0, "avg_drain_dist": 3042.8038659784656, "high_risk_cells": 0.0 }, "geometry": { "type": "Polygon", "coordinates": [ [ [ 77.03375, 28.478571428571428 ], [ 77.0725, 28.478571428571428 ], [ 77.0725, 28.45 ], [ 77.03375, 28.45 ], [ 77.03375, 28.478571428571428 ] ] ] } },
{ "type": "Feature", "properties": { "ward_id": 7, "ward_name": "SW_Ward_007", "district": "South West Delhi", "avg_risk": 0.16706513622215385, "max_risk": 0.34382122179176744, "n_cells": 660, "avg_elevation": 241.41865455674167, "avg_rainfall": 0.0, "avg_drain_dist": 773.60827411891557, "high_risk_cells": 0.0 }, "geometry": { "type": "Polygon", "coordinates": [ [ [ 77.0725, 28.478571428571428 ], [ 77.11125, 28.478571428571428 ], [ 77.11125, 28.45 ], [ 77.0725, 28.45 ], [ 77.0725, 28.478571428571428 ] ] ] } },
{ "type": "Feature", "properties": { "ward_id": 8, "ward_name": "SW_Ward_008", "district": "South West Delhi", "avg_risk": 0.21286111097350247, "max_risk": 0.40470040609949859, "n_cells": 638, "avg_elevation": 240.88811020088318, "avg_rainfall": 0.0, "avg_drain_dist": 2264.0536554600953, "high_risk_cells": 0.0 }, "geometry": { "type": "Polygon", "coordinates": [ [ [ 77.15, 28.45 ], [ 77.11125, 28.45 ], [ 77.11125, 28.478571428571428 ], [ 77.15, 28.478571428571428 ], [ 77.15, 28.45 ] ] ] } },
{ "type": "Feature", "properties": { "ward_id": 9, "ward_name": "SW_Ward_009", "district": "South West Delhi", "avg_risk": 0.34492804729890425, "max_risk": 0.54842851548137306, "n_cells": 638, "avg_elevation": 239.37816457586271, "avg_rainfall": 0.0, "avg_drain_dist": 6567.4281019844293, "high_risk_cells": 0.0 }, "geometry": { "type": "Polygon", "coordinates": [ [ [ 76.87875, 28.507142857142856 ], [ 76.87875, 28.478571428571428 ], [ 76.84, 28.478571428571428 ], [ 76.84, 28.507142857142856 ], [ 76.87875, 28.507142857142856 ] ] ] } },
{ "type": "Feature", "properties": { "ward_id": 10, "ward_name": "SW_Ward_010", "district": "South West Delhi", "avg_risk": 0.25621548855986154, "max_risk": 0.457700293973757, "n_cells": 660, "avg_elevation": 239.10989652853235, "avg_rainfall": 0.0, "avg_drain_dist": 3513.5186156046229, "high_risk_cells": 0.0 }, "geometry": { "type": "Polygon", "coordinates": [ [ [ 76.87875, 28.478571428571428 ], [ 76.87875, 28.507142857142856 ], [ 76.9175, 28.507142857142856 ], [ 76.9175, 28.478571428571428 ], [ 76.87875, 28.478571428571428 ] ] ] } },
{ "type": "Feature", "properties": { "ward_id": 11, "ward_name": "SW_Ward_011", "district": "South West Delhi", "avg_risk": 0.19738279198237083, "max_risk": 0.386497166615829, "n_cells": 660, "avg_elevation": 239.8198726972935, "avg_rainfall": 0.0, "avg_drain_dist": 1601.0884054971034, "high_risk_cells": 0.0 }, "geometry": { "type": "Polygon", "coordinates": [ [ [ 76.9175, 28.478571428571428 ], [ 76.9175, 28.507142857142856 ], [ 76.95625, 28.507142857142856 ], [ 76.95625, 28.478571428571428 ], [ 76.9175, 28.478571428571428 ] ] ] } },
{ "type": "Feature", "properties": { "ward_id": 12, "ward_name": "SW_Ward_012", "district": "South West Delhi", "avg_risk": 0.18970674845980159, "max_risk": 0.3710267176439106, "n_cells": 660, "avg_elevation": 240.04989504841546, "avg_rainfall": 0.0, "avg_drain_dist": 1369.5598658150309, "high_risk_cells": 0.0 }, "geometry": { "type": "Polygon", "coordinates": [ [ [ 76.95625, 28.478571428571428 ], [ 76.95625, 28.507142857142856 ], [ 76.995, 28.507142857142856 ], [ 76.995, 28.478571428571428 ], [ 76.95625, 28.478571428571428 ] ] ] } },
{ "type": "Feature", "properties": { "ward_id": 13, "ward_name": "SW_Ward_013", "district": "South West Delhi", "avg_risk": 0.17635705524205425, "max_risk": 0.33632716193486978, "n_cells": 660, "avg_elevation": 239.20764377519453, "avg_rainfall": 0.0, "avg_drain_dist": 808.4438295081593, "high_risk_cells": 0.0 }, "geometry": { "type": "Polygon", "coordinates": [ [ [ 76.995, 28.478571428571428 ], [ 76.995, 28.507142857142856 ], [ 77.03375, 28.507142857142856 ], [ 77.03375, 28.478571428571428 ], [ 76.995, 28.478571428571428 ] ] ] } },
{ "type": "Feature", "properties": { "ward_id": 14, "ward_name": "SW_Ward_014", "district": "South West Delhi", "avg_risk": 0.22118959349422326, "max_risk": 0.38684952040630505, "n_cells": 660, "avg_elevation": 237.77454950260955, "avg_rainfall": 0.0, "avg_drain_dist": 2151.1609994673217, "high_risk_cells": 0.0 }, "geometry": { "type": "Polygon", "coordinates": [ [ [ 77.03375, 28.478571428571428 ], [ 77.03375, 28.507142857142856 ], [ 77.0725, 28.507142857142856 ], [ 77.0725, 28.478571428571428 ], [ 77.03375, 28.478571428571428 ] ] ] } },
{ "type": "Feature", "properties": { "ward_id": 15, "ward_name": "SW_Ward_015", "district": "South West Delhi", "avg_risk": 0.18787118385731522, "max_risk": 0.3582353609348562, "n_cells": 660, "avg_elevation": 239.5046159107537, "avg_rainfall": 0.0, "avg_drain_dist": 1238.5774377941607, "high_risk_cells": 0.0 }, "geometry": { "type": "Polygon", "coordinates": [ [ [ 77.0725, 28.478571428571428 ], [ 77.0725, 28.507142857142856 ], [ 77.11125, 28.507142857142856 ], [ 77.11125, 28.478571428571428 ], [ 77.0725, 28.478571428571428 ] ] ] } },
{ "type": "Feature", "properties": { "ward_id": 16, "ward_name": "SW_Ward_016", "district": "South West Delhi", "avg_risk": 0.18924929867523158, "max_risk": 0.36286515735247082, "n_cells": 638, "avg_elevation": 240.00781140630437, "avg_rainfall": 0.0, "avg_drain_dist": 1348.4342284013337, "high_risk_cells": 0.0 }, "geometry": { "type": "Polygon", "coordinates": [ [ [ 77.15, 28.478571428571428 ], [ 77.11125, 28.478571428571428 ], [ 77.11125, 28.507142857142856 ], [ 77.15, 28.507142857142856 ], [ 77.15, 28.478571428571428 ] ] ] } },
{ "type": "Feature", "properties": { "ward_id": 17, "ward_name": "SW_Ward_017", "district": "South West Delhi", "avg_risk": 0.32747710102503902, "max_risk": 0.51253933757742365, "n_cells": 638, "avg_elevation": 238.57571836864685, "avg_rainfall": 0.0, "avg_drain_dist": 5871.0322554036302, "high_risk_cells": 0.0 }, "geometry": { "type": "Polygon", "coordinates": [ [ [ 76.87875, 28.535714285714285 ], [ 76.87875, 28.507142857142856 ], [ 76.84, 28.507142857142856 ], [ 76.84, 28.535714285714285 ], [ 76.87875, 28.535714285714285 ] ] ] } },
{ "type": "Feature", "properties": { "ward_id": 18, "ward_name": "SW_Ward_018", "district": "South West Delhi", "avg_risk": 0.21293850856413021, "max_risk": 0.40994851873619342, "n_cells": 660, "avg_elevation": 241.11242957198812, "avg_rainfall": 0.0, "avg_drain_dist": 2294.6550421304237, "high_risk_cells": 0.0 }, "geometry": { "type": "Polygon", "coordinates": [ [ [ 76.87875, 28.507142857142856 ], [ 76.87875, 28.535714285714285 ], [ 76.9175, 28.535714285714285 ], [ 76.9175, 28.507142857142856 ], [ 76.87875, 28.507142857142856 ] ] ] } },
{ "type": "Feature", "properties": { "ward_id": 19, "ward_name": "SW_Ward_019", "district": "South West Delhi", "avg_risk": 0.18029149790276003, "max_risk": 0.37904870397500484, "n_cells": 660, "avg_elevation": 241.11832567760854, "avg_rainfall": 0.0, "avg_drain_dist": 1184.6617001421839, "high_risk_cells": 0.0 }, "geometry": { "type": "Polygon", "coordinates": [ [ [ 76.9175, 28.507142857142856 ], [ 76.9175, 28.535714285714285 ], [ 76.95625, 28.535714285714285 ], [ 76.95625, 28.507142857142856 ], [ 76.9175, 28.507142857142856 ] ] ] } },
{ "type": "Feature", "properties": { "ward_id": 20, "ward_name": "SW_Ward_020", "district": "South West Delhi", "avg_risk": 0.16769496479910584, "max_risk": 0.34615495830291859, "n_cells": 660, "avg_elevation": 239.7588676019532, "avg_rainfall": 0.0, "avg_drain_dist": 583.47192107303192, "high_risk_cells": 0.0 }, "geometry": { "type": "Polygon", "coordinates": [ [ [ 76.95625, 28.507142857142856 ], [ 76.95625, 28.535714285714285 ], [ 76.995, 28.535714285714285 ], [ 76.995, 28.507142857142856 ], [ 76.95625, 28.507142857142856 ] ] ] } },
{ "type": "Feature", "properties": { "ward_id": 21, "ward_name": "SW_Ward_021", "district": "South West Delhi", "avg_risk": 0.17004731346409105, "max_risk": 0.32916882360765448, "n_cells": 660, "avg_elevation": 238.9485083698377, "avg_rainfall": 0.0, "avg_drain_dist": 559.10101293018852, "high_risk_cells": 0.0 }, "geometry": { "type": "Polygon", "coordinates": [ [ [ 76.995, 28.507142857142856 ], [ 76.995, 28.535714285714285 ], [ 77.03375, 28.535714285714285 ], [ 77.03375, 28.507142857142856 ], [ 76.995, 28.507142857142856 ] ] ] } },
{ "type": "Feature", "properties": { "ward_id": 22, "ward_name": "SW_Ward_022", "district": "South West Delhi", "avg_risk": 0.17890712009220372, "max_risk": 0.36018852471328994, "n_cells": 660, "avg_elevation": 238.40498260701011, "avg_rainfall": 0.0, "avg_drain_dist": 792.52791091581514, "high_risk_cells": 0.0 }, "geometry": { "type": "Polygon", "coordinates": [ [ [ 77.03375, 28.507142857142856 ], [ 77.03375, 28.535714285714285 ], [ 77.0725, 28.535714285714285 ], [ 77.0725, 28.507142857142856 ], [ 77.03375, 28.507142857142856 ] ] ] } },
{ "type": "Feature", "properties": { "ward_id": 23, "ward_name": "SW_Ward_023", "district": "South West Delhi", "avg_risk": 0.17248443880160175, "max_risk": 0.34274983297844974, "n_cells": 660, "avg_elevation": 240.33433876636431, "avg_rainfall": 0.0, "avg_drain_dist": 819.07589393200067, "high_risk_cells": 0.0 }, "geometry": { "type": "Polygon", "coordinates": [ [ [ 77.0725, 28.507142857142856 ], [ 77.0725, 28.535714285714285 ], [ 77.11125, 28.535714285714285 ], [ 77.11125, 28.507142857142856 ], [ 77.0725, 28.507142857142856 ] ] ] } },
{ "type": "Feature", "properties": { "ward_id": 24, "ward_name": "SW_Ward_024", "district": "South West Delhi", "avg_risk": 0.21185659535226556, "max_risk": 0.38784475759215442, "n_cells": 638, "avg_elevation": 240.44559823682778, "avg_rainfall": 0.0, "avg_drain_dist": 2173.5850835619808, "high_risk_cells": 0.0 }, "geometry": { "type": "Polygon", "coordinates": [ [ [ 77.15, 28.507142857142856 ], [ 77.11125, 28.507142857142856 ], [ 77.11125, 28.535714285714285 ], [ 77.15, 28.535714285714285 ], [ 77.15, 28.507142857142856 ] ] ] } },
{ "type": "Feature", "properties": { "ward_id": 25, "ward_name": "SW_Ward_025", "district": "South West Delhi", "avg_risk": 0.34931533244929075, "max_risk": 0.55883075950523331, "n_cells": 638, "avg_elevation": 239.69439944231567, "avg_rainfall": 0.0, "avg_drain_dist": 6757.2955316677062, "high_risk_cells": 0.0 }, "geometry": { "type": "Polygon", "coordinates": [ [ [ 76.87875, 28.564285714285713 ], [ 76.87875, 28.535714285714285 ], [ 76.84, 28.535714285714285 ], [ 76.84, 28.564285714285713 ], [ 76.87875, 28.564285714285713 ] ] ] } },
{ "type": "Feature", "properties": { "ward_id": 26, "ward_name": "SW_Ward_026", "district": "South West Delhi", "avg_risk": 0.27023870312869991, "max_risk": 0.47759877409195123, "n_cells": 660, "avg_elevation": 239.51734251850209, "avg_rainfall": 0.0, "avg_drain_dist": 4042.7580310232365, "high_risk_cells": 0.0 }, "geometry": { "type": "Polygon", "coordinates": [ [ [ 76.87875, 28.535714285714285 ], [ 76.87875, 28.564285714285713 ], [ 76.9175, 28.564285714285713 ], [ 76.9175, 28.535714285714285 ], [ 76.87875, 28.535714285714285 ] ] ] } },
{ "type": "Feature", "properties": { "ward_id": 27, "ward_name": "SW_Ward_027", "district": "South West Delhi", "avg_risk": 0.24081843089841806, "max_risk": 0.40655506410456926, "n_cells": 660, "avg_elevation": 237.39697868619555, "avg_rainfall": 0.0, "avg_drain_dist": 2771.8125640285739, "high_risk_cells": 0.0 }, "geometry": { "type": "Polygon", "coordinates": [ [ [ 76.9175, 28.535714285714285 ], [ 76.9175, 28.564285714285713 ], [ 76.95625, 28.564285714285713 ], [ 76.95625, 28.535714285714285 ], [ 76.9175, 28.535714285714285 ] ] ] } },
{ "type": "Feature", "properties": { "ward_id": 28, "ward_name": "SW_Ward_028", "district": "South West Delhi", "avg_risk": 0.17256883392983172, "max_risk": 0.36359528634067256, "n_cells": 660, "avg_elevation": 241.39990386703116, "avg_rainfall": 0.0, "avg_drain_dist": 957.47001647348236, "high_risk_cells": 0.0 }, "geometry": { "type": "Polygon", "coordinates": [ [ [ 76.95625, 28.535714285714285 ], [ 76.95625, 28.564285714285713 ], [ 76.995, 28.564285714285713 ], [ 76.995, 28.535714285714285 ], [ 76.95625, 28.535714285714285 ] ] ] } },
{ "type": "Feature", "properties": { "ward_id": 29, "ward_name": "SW_Ward_029", "district": "South West Delhi", "avg_risk": 0.17031109128218413, "max_risk": 0.34169211723229193, "n_cells": 660, "avg_elevation": 238.54802980591012, "avg_rainfall": 0.0, "avg_drain_dist": 517.89258125098127, "high_risk_cells": 0.0 }, "geometry": { "type": "Polygon", "coordinates": [ [ [ 76.995, 28.535714285714285 ], [ 76.995, 28.564285714285713 ], [ 77.03375, 28.564285714285713 ], [ 77.03375, 28.535714285714285 ], [ 76.995, 28.535714285714285 ] ] ] } },
{ "type": "Feature", "properties": { "ward_id": 30, "ward_name": "SW_Ward_030", "district": "South West Delhi", "avg_risk": 0.15703753997908024, "max_risk": 0.32118849707023045, "n_cells": 660, "avg_elevation": 241.78421469933483, "avg_rainfall": 0.0, "avg_drain_dist": 477.05196119493831, "high_risk_cells": 0.0 }, "geometry": { "type": "Polygon", "coordinates": [ [ [ 77.03375, 28.535714285714285 ], [ 77.03375, 28.564285714285713 ], [ 77.0725, 28.564285714285713 ], [ 77.0725, 28.535714285714285 ], [ 77.03375, 28.535714285714285 ] ] ] } },
{ "type": "Feature", "properties": { "ward_id": 31, "ward_name": "SW_Ward_031", "district": "South West Delhi", "avg_risk": 0.15734039644982695, "max_risk": 0.32355396598117792, "n_cells": 660, "avg_elevation": 239.95639592736057, "avg_rainfall": 0.0, "avg_drain_dist": 255.90632415342054, "high_risk_cells": 0.0 }, "geometry": { "type": "Polygon", "coordinates": [ [ [ 77.0725, 28.535714285714285 ], [ 77.0725, 28.564285714285713 ], [ 77.11125, 28.564285714285713 ], [ 77.11125, 28.535714285714285 ], [ 77.0725, 28.535714285714285 ] ] ] } },
{ "type": "Feature", "properties": { "ward_id": 32, "ward_name": "SW_Ward_032", "district": "South West Delhi", "avg_risk": 0.18944703183234665, "max_risk": 0.37580206402071853, "n_cells": 638, "avg_elevation": 240.32157976374612, "avg_rainfall": 0.0, "avg_drain_dist": 1394.732576312935, "high_risk_cells": 0.0 }, "geometry": { "type": "Polygon", "coordinates": [ [ [ 77.15, 28.535714285714285 ], [ 77.11125, 28.535714285714285 ], [ 77.11125, 28.564285714285713 ], [ 77.15, 28.564285714285713 ], [ 77.15, 28.535714285714285 ] ] ] } },
{ "type": "Feature", "properties": { "ward_id": 33, "ward_name": "SW_Ward_033", "district": "South West Delhi", "avg_risk": 0.39961625119314403, "max_risk": 0.60818231283847601, "n_cells": 638, "avg_elevation": 241.05269233438457, "avg_rainfall": 0.0, "avg_drain_dist": 8642.129948118969, "high_risk_cells": 0.0 }, "geometry": { "type": "Polygon", "coordinates": [ [ [ 76.87875, 28.592857142857142 ], [ 76.87875, 28.564285714285713 ], [ 76.84, 28.564285714285713 ], [ 76.84, 28.592857142857142 ], [ 76.87875, 28.592857142857142 ] ] ] } },
{ "type": "Feature", "properties": { "ward_id": 34, "ward_name": "SW_Ward_034", "district": "South West Delhi", "avg_risk": 0.32042159755851185, "max_risk": 0.50841378782157931, "n_cells": 660, "avg_elevation": 237.78413204928356, "avg_rainfall": 0.0, "avg_drain_dist": 5529.8313523269298, "high_risk_cells": 0.0 }, "geometry": { "type": "Polygon", "coordinates": [ [ [ 76.87875, 28.564285714285713 ], [ 76.87875, 28.592857142857142 ], [ 76.9175, 28.592857142857142 ], [ 76.9175, 28.564285714285713 ], [ 76.87875, 28.564285714285713 ] ] ] } },
{ "type": "Feature", "properties": { "ward_id": 35, "ward_name": "SW_Ward_035", "district": "South West Delhi", "avg_risk": 0.20602606993210909, "max_risk": 0.39677933134944371, "n_cells": 660, "avg_elevation": 240.93273148426684, "avg_rainfall": 0.0, "avg_drain_dist": 2037.7883399764919, "high_risk_cells": 0.0 }, "geometry": { "type": "Polygon", "coordinates": [ [ [ 76.9175, 28.564285714285713 ], [ 76.9175, 28.592857142857142 ], [ 76.95625, 28.592857142857142 ], [ 76.95625, 28.564285714285713 ], [ 76.9175, 28.564285714285713 ] ] ] } },
{ "type": "Feature", "properties": { "ward_id": 36, "ward_name": "SW_Ward_036", "district": "South West Delhi", "avg_risk": 0.17889834965127532, "max_risk": 0.36073444505268842, "n_cells": 660, "avg_elevation": 242.22322935976334, "avg_rainfall": 0.0, "avg_drain_dist": 1278.0768905821815, "high_risk_cells": 0.0 }, "geometry": { "type": "Polygon", "coordinates": [ [ [ 76.95625, 28.564285714285713 ], [ 76.95625, 28.592857142857142 ], [ 76.995, 28.592857142857142 ], [ 76.995, 28.564285714285713 ], [ 76.95625, 28.564285714285713 ] ] ] } },
{ "type": "Feature", "properties": { "ward_id": 37, "ward_name": "SW_Ward_037", "district": "South West Delhi", "avg_risk": 0.17424205569429171, "max_risk": 0.36540764891213273, "n_cells": 660, "avg_elevation": 240.30324606492451, "avg_rainfall": 0.0, "avg_drain_dist": 874.81013314463019, "high_risk_cells": 0.0 }, "geometry": { "type": "Polygon", "coordinates": [ [ [ 76.995, 28.564285714285713 ], [ 76.995, 28.592857142857142 ], [ 77.03375, 28.592857142857142 ], [ 77.03375, 28.564285714285713 ], [ 76.995, 28.564285714285713 ] ] ] } },
{ "type": "Feature", "properties": { "ward_id": 38, "ward_name": "SW_Ward_038", "district": "South West Delhi", "avg_risk": 0.16399157356110478, "max_risk": 0.331553115093627, "n_cells": 660, "avg_elevation": 239.82978009689322, "avg_rainfall": 0.0, "avg_drain_dist": 466.41956880366189, "high_risk_cells": 0.0 }, "geometry": { "type": "Polygon", "coordinates": [ [ [ 77.03375, 28.564285714285713 ], [ 77.03375, 28.592857142857142 ], [ 77.0725, 28.592857142857142 ], [ 77.0725, 28.564285714285713 ], [ 77.03375, 28.564285714285713 ] ] ] } },
{ "type": "Feature", "properties": { "ward_id": 39, "ward_name": "SW_Ward_039", "district": "South West Delhi", "avg_risk": 0.15979420960524285, "max_risk": 0.33543788968266386, "n_cells": 660, "avg_elevation": 241.60342253594831, "avg_rainfall": 0.0, "avg_drain_dist": 549.3799943495394, "high_risk_cells": 0.0 }, "geometry": { "type": "Polygon", "coordinates": [ [ [ 77.0725, 28.564285714285713 ], [ 77.0725, 28.592857142857142 ], [ 77.11125, 28.592857142857142 ], [ 77.11125, 28.564285714285713 ], [ 77.0725, 28.564285714285713 ] ] ] } },
{ "type": "Feature", "properties": { "ward_id": 40, "ward_name": "SW_Ward_040", "district": "South West Delhi", "avg_risk": 0.18341265072183796, "max_risk": 0.36894043451632558, "n_cells": 638, "avg_elevation": 241.45926899497329, "avg_rainfall": 0.0, "avg_drain_dist": 1334.4618824325278, "high_risk_cells": 0.0 }, "geometry": { "type": "Polygon", "coordinates": [ [ [ 77.15, 28.564285714285713 ], [ 77.11125, 28.564285714285713 ], [ 77.11125, 28.592857142857142 ], [ 77.15, 28.592857142857142 ], [ 77.15, 28.564285714285713 ] ] ] } },
{ "type": "Feature", "properties": { "ward_id": 41, "ward_name": "SW_Ward_041", "district": "South West Delhi", "avg_risk": 0.443963335820312, "max_risk": 0.63698987754920799, "n_cells": 638, "avg_elevation": 238.74742322701039, "avg_rainfall": 0.0, "avg_drain_dist": 9857.5999219384339, "high_risk_cells": 0.0 }, "geometry": { "type": "Polygon", "coordinates": [ [ [ 76.87875, 28.62142857142857 ], [ 76.87875, 28.592857142857142 ], [ 76.84, 28.592857142857142 ], [ 76.84, 28.62142857142857 ], [ 76.87875, 28.62142857142857 ] ] ] } },
{ "type": "Feature", "properties": { "ward_id": 42, "ward_name": "SW_Ward_042", "district": "South West Delhi", "avg_risk": 0.34064630497889703, "max_risk": 0.53477978920393998, "n_cells": 660, "avg_elevation": 239.94940828481145, "avg_rainfall": 0.0, "avg_drain_dist": 6494.3836254195212, "high_risk_cells": 0.0 }, "geometry": { "type": "Polygon", "coordinates": [ [ [ 76.87875, 28.592857142857142 ], [ 76.87875, 28.62142857142857 ], [ 76.9175, 28.62142857142857 ], [ 76.9175, 28.592857142857142 ], [ 76.87875, 28.592857142857142 ] ] ] } },
{ "type": "Feature", "properties": { "ward_id": 43, "ward_name": "SW_Ward_043", "district": "South West Delhi", "avg_risk": 0.26232533664223917, "max_risk": 0.44901796359790291, "n_cells": 660, "avg_elevation": 239.83324185396305, "avg_rainfall": 0.0, "avg_drain_dist": 3814.508176540266, "high_risk_cells": 0.0 }, "geometry": { "type": "Polygon", "coordinates": [ [ [ 76.9175, 28.592857142857142 ], [ 76.9175, 28.62142857142857 ], [ 76.95625, 28.62142857142857 ], [ 76.95625, 28.592857142857142 ], [ 76.9175, 28.592857142857142 ] ] ] } },
{ "type": "Feature", "properties": { "ward_id": 44, "ward_name": "SW_Ward_044", "district": "South West Delhi", "avg_risk": 0.19448387213182136, "max_risk": 0.38598645750992427, "n_cells": 660, "avg_elevation": 239.62459702857851, "avg_rainfall": 0.0, "avg_drain_dist": 1477.5428812074758, "high_risk_cells": 0.0 }, "geometry": { "type": "Polygon", "coordinates": [ [ [ 76.95625, 28.592857142857142 ], [ 76.95625, 28.62142857142857 ], [ 76.995, 28.62142857142857 ], [ 76.995, 28.592857142857142 ], [ 76.95625, 28.592857142857142 ] ] ] } },
{ "type": "Feature", "properties": { "ward_id": 45, "ward_name": "SW_Ward_045", "district": "South West Delhi", "avg_risk": 0.15876616488642201, "max_risk": 0.32910826222084177, "n_cells": 660, "avg_elevation": 240.936259913258, "avg_rainfall": 0.0, "avg_drain_dist": 429.50257303542969, "high_risk_cells": 0.0 }, "geometry": { "type": "Polygon", "coordinates": [ [ [ 76.995, 28.592857142857142 ], [ 76.995, 28.62142857142857 ], [ 77.03375, 28.62142857142857 ], [ 77.03375, 28.592857142857142 ], [ 76.995, 28.592857142857142 ] ] ] } },
{ "type": "Feature", "properties": { "ward_id": 46, "ward_name": "SW_Ward_046", "district": "South West Delhi", "avg_risk": 0.17196990274573479, "max_risk": 0.3437048168548581, "n_cells": 660, "avg_elevation": 239.17092189812666, "avg_rainfall": 0.0, "avg_drain_dist": 653.69195000178672, "high_risk_cells": 0.0 }, "geometry": { "type": "Polygon", "coordinates": [ [ [ 77.03375, 28.592857142857142 ], [ 77.03375, 28.62142857142857 ], [ 77.0725, 28.62142857142857 ], [ 77.0725, 28.592857142857142 ], [ 77.03375, 28.592857142857142 ] ] ] } },
{ "type": "Feature", "properties": { "ward_id": 47, "ward_name": "SW_Ward_047", "district": "South West Delhi", "avg_risk": 0.1645454402276311, "max_risk": 0.3205557962622515, "n_cells": 660, "avg_elevation": 238.66612512883202, "avg_rainfall": 0.0, "avg_drain_dist": 336.6121194855267, "high_risk_cells": 0.0 }, "geometry": { "type": "Polygon", "coordinates": [ [ [ 77.0725, 28.592857142857142 ], [ 77.0725, 28.62142857142857 ], [ 77.11125, 28.62142857142857 ], [ 77.11125, 28.592857142857142 ], [ 77.0725, 28.592857142857142 ] ] ] } },
{ "type": "Feature", "properties": { "ward_id": 48, "ward_name": "SW_Ward_048", "district": "South West Delhi", "avg_risk": 0.17035087144615149, "max_risk": 0.33602163909923621, "n_cells": 638, "avg_elevation": 239.92830886829231, "avg_rainfall": 0.0, "avg_drain_dist": 694.97080836464863, "high_risk_cells": 0.0 }, "geometry": { "type": "Polygon", "coordinates": [ [ [ 77.15, 28.592857142857142 ], [ 77.11125, 28.592857142857142 ], [ 77.11125, 28.62142857142857 ], [ 77.15, 28.62142857142857 ], [ 77.15, 28.592857142857142 ] ] ] } },
{ "type": "Feature", "properties": { "ward_id": 49, "ward_name": "SW_Ward_049", "district": "South West Delhi", "avg_risk": 0.43333154485903047, "max_risk": 0.63319631702958179, "n_cells": 638, "avg_elevation": 238.32823970608453, "avg_rainfall": 0.0, "avg_drain_dist": 9444.0127165004542, "high_risk_cells": 0.0 }, "geometry": { "type": "Polygon", "coordinates": [ [ [ 76.87875, 28.62142857142857 ], [ 76.84, 28.62142857142857 ], [ 76.84, 28.65 ], [ 76.87875, 28.65 ], [ 76.87875, 28.62142857142857 ] ] ] } },
{ "type": "Feature", "properties": { "ward_id": 50, "ward_name": "SW_Ward_050", "district": "South West Delhi", "avg_risk": 0.3262991503098332, "max_risk": 0.52037493408800839, "n_cells": 660, "avg_elevation": 240.04427415602524, "avg_rainfall": 0.0, "avg_drain_dist": 6019.1755161688761, "high_risk_cells": 0.0 }, "geometry": { "type": "Polygon", "coordinates": [ [ [ 76.9175, 28.62142857142857 ], [ 76.87875, 28.62142857142857 ], [ 76.87875, 28.65 ], [ 76.9175, 28.65 ], [ 76.9175, 28.62142857142857 ] ] ] } }
]
}
